OBJECT_NAME,OBJECT_ID,EPOCH,MEAN_MOTION,ECCENTRICITY,INCLINATION,RA_OF_ASC_NODE,ARG_OF_PERICENTER,MEAN_ANOMALY,EPHEMERIS_TYPE,CLASSIFICATION_TYPE,NORAD_CAT_ID,ELEMENT_SET_NO,REV_AT_EPOCH,BSTAR,MEAN_MOTION_DOT,MEAN_MOTION_DDOT
STARLINK-34260,2025-124T,2026-05-31T23:09:16.165152,15.27601696,.00005729,43.0009,11.6430,358.2860,1.7989,0,U,64334,999,5451,.11977192E-2,.32865E-3,0
STARLINK-33855,2025-124U,2026-06-01T00:00:51.041664,15.27603994,.00018198,43.0042,11.0456,265.9926,94.0717,0,U,64335,999,5452,.97026694E-3,.26553E-3,0
STARLINK-34223,2025-124V,2026-05-31T23:44:53.631168,15.27597204,.0001632,43.0043,7.4994,242.1333,117.9353,0,U,64336,999,5456,.73918888E-3,.20145E-3,0
STARLINK-34216,2025-124W,2026-06-01T23:12:51.316704,15.27602270,.00014407,43.0027,5.4009,270.3679,89.7007,0,U,64337,999,5467,.72114652E-3,.19649E-3,0
STARLINK-34218,2025-124X,2026-06-01T00:01:33.379392,15.27638363,.00030028,43.0054,7.5932,278.4191,81.6321,0,U,64338,999,5456,.16124079E-2,.44458E-3,0
STARLINK-34017,2025-124Y,2026-06-01T22:15:42.007392,15.27596377,.00015892,43.0029,5.9628,270.4885,89.5785,0,U,64339,999,5466,.97014002E-3,.26544E-3,0
QPS-SAR-11 (YAMATSUMI-I),2025-125A,2026-06-01T10:14:00.653280,15.01469469,.00094421,42.0086,278.6679,18.0625,342.0535,0,U,64340,999,5325,.43245099E-3,.5504E-4,0
STARLINK-33977,2025-126A,2026-06-02T03:23:54.621024,14.98333833,.00040167,70.0002,181.4600,266.0944,93.9755,0,U,64344,999,5454,.26532059E-3,.3075E-4,0
STARLINK-34426,2025-126B,2026-06-02T03:17:39.835104,14.98325337,.00035401,70.0038,181.4435,255.3356,104.7411,0,U,64345,999,5333,.44714701E-4,.44E-5,0
STARLINK-34437,2025-126C,2026-06-02T03:59:44.093184,14.98336295,.00038509,69.9998,181.5434,266.5590,93.5129,0,U,64346,999,5333,.20974582E-3,.2411E-4,0
STARLINK-34407,2025-126D,2026-06-02T04:05:58.968096,14.98337664,.00040961,69.9998,181.5530,269.6488,90.4202,0,U,64347,999,5333,.25532452E-3,.2955E-4,0
STARLINK-34274,2025-126E,2026-06-02T04:23:47.889024,14.98327512,.00037801,69.9999,181.6029,268.4440,91.6286,0,U,64348,999,5333,.19883177E-3,.228E-4,0
STARLINK-34301,2025-126F,2026-06-02T03:23:40.295040,14.98335089,.00038943,69.9996,181.4545,266.7422,93.3291,0,U,64349,999,5333,.26302272E-3,.3047E-4,0
STARLINK-34425,2025-126G,2026-06-02T03:53:44.836800,14.98329417,.0003934,70.0001,181.5259,273.6603,86.4106,0,U,64350,999,5333,.4527444E-3,.5313E-4,0
STARLINK-34389,2025-126H,2026-06-02T03:35:55.889952,14.98336607,.00039833,70.0004,181.4801,268.0556,92.0147,0,U,64351,999,5333,.33740545E-3,.3936E-4,0
STARLINK-34385,2025-126J,2026-06-02T04:11:45.408768,14.98336268,.00040441,69.9996,181.5716,266.4341,93.6356,0,U,64352,999,5333,.21046953E-3,.242E-4,0
STARLINK-34431,2025-126K,2026-06-02T03:17:53.804256,14.98325710,.0003374,69.9992,181.4440,267.7106,92.3667,0,U,64353,999,5333,.32339245E-3,.3767E-4,0
STARLINK-34473,2025-126L,2026-06-02T03:35:42.354528,14.98324872,.00038065,70.0002,181.4850,263.8644,96.2082,0,U,64354,999,5333,.37218494E-3,.435E-4,0
STARLINK-34270,2025-126M,2026-06-02T03:41:42.302112,14.98336385,.00038559,69.9996,181.4976,266.3434,93.7284,0,U,64355,999,5453,.30740586E-3,.3577E-4,0
STARLINK-34397,2025-126N,2026-06-02T04:17:45.963744,14.98338121,.00039115,69.9997,181.5832,268.1250,91.9462,0,U,64356,999,5333,.2584323E-3,.2993E-4,0
STARLINK-34454,2025-126P,2026-06-02T04:24:00.919872,14.98335854,.0003425,69.9996,181.5962,268.3902,91.6865,0,U,64357,999,5333,.16322129E-3,.1855E-4,0
STARLINK-34436,2025-126Q,2026-06-02T04:42:00.510336,14.98334878,.0004086,69.9995,181.2375,264.8809,95.1884,0,U,64358,999,5334,.17901895E-3,.2044E-4,0
STARLINK-34291,2025-126R,2026-06-02T03:29:55.874112,14.98326466,.00036625,69.9995,181.4626,266.7918,93.2822,0,U,64359,999,5333,.35992774E-3,.4204E-4,0
STARLINK-34458,2025-126S,2026-06-02T03:41:53.823552,14.98458871,.00050864,69.9998,181.4946,276.9332,83.1248,0,U,64360,999,5333,.51418953E-2,.62021E-3,0
STARLINK-34243,2025-126T,2026-06-02T03:47:42.831168,14.98335371,.00040193,69.9999,181.5125,265.3083,94.7617,0,U,64361,999,5333,.23198365E-3,.2676E-4,0
STARLINK-34335,2025-126U,2026-06-02T03:11:38.905152,14.98334708,.00039447,69.9995,181.4254,264.9487,95.1222,0,U,64362,999,5333,.18928188E-3,.2166E-4,0
STARLINK-34408,2025-126V,2026-06-02T04:35:45.301056,14.98332196,.00045811,69.9986,181.2247,269.2834,90.7800,0,U,64363,999,5334,-.14653696E-3,-.1842E-4,0
STARLINK-34476,2025-126W,2026-06-02T03:29:40.995168,14.98335594,.00038745,69.9997,181.4662,266.0228,94.0488,0,U,64364,999,5333,.34965207E-3,.4082E-4,0
STARLINK-34479,2025-126X,2026-06-02T02:53:38.955264,14.98322739,.00036788,69.9998,181.7790,261.1012,98.9731,0,U,64365,999,5332,.63715096E-4,.667E-5,0
STARLINK-34484,2025-126Y,2026-06-02T04:41:46.292352,14.98334600,.00038732,69.9995,181.2387,265.0506,95.0211,0,U,64366,999,5455,.16965767E-3,.1932E-4,0
