STARLINK-34260          
1 64334U 25124T   26151.96477043  .00032865  00000+0  11977-2 0  9999
2 64334  43.0009  11.6430 0000572 358.2860   1.7989 15.27601696 54511
STARLINK-33855          
1 64335U 25124U   26152.00059076  .00026553  00000+0  97027-3 0  9996
2 64335  43.0042  11.0456 0001819 265.9926  94.0717 15.27603994 54521
STARLINK-34223          
1 64336U 25124V   26151.98950962  .00020145  00000+0  73919-3 0  9992
2 64336  43.0043   7.4994 0001632 242.1333 117.9353 15.27597204 54562
STARLINK-34216          
1 64337U 25124W   26152.96726061  .00019649  00000+0  72115-3 0  9997
2 64337  43.0027   5.4009 0001440 270.3679  89.7007 15.27602270 54677
STARLINK-34218          
1 64338U 25124X   26152.00108078  .00044458  00000+0  16124-2 0  9998
2 64338  43.0054   7.5932 0003002 278.4191  81.6321 15.27638363 54560
STARLINK-34017          
1 64339U 25124Y   26152.92756953  .00026544  00000+0  97014-3 0  9995
2 64339  43.0029   5.9628 0001589 270.4885  89.5785 15.27596377 54667
QPS-SAR-11 (YAMATSUMI-I)
1 64340U 25125A   26152.42639645  .00005504  00000+0  43245-3 0  9991
2 64340  42.0086 278.6679 0009442  18.0625 342.0535 15.01469469 53257
STARLINK-33977          
1 64344U 25126A   26153.14160441  .00003075  00000+0  26532-3 0  9990
2 64344  70.0002 181.4600 0004016 266.0944  93.9755 14.98333833 54545
STARLINK-34426          
1 64345U 25126B   26153.13726661  .00000440  00000+0  44715-4 0  9999
2 64345  70.0038 181.4435 0003540 255.3356 104.7411 14.98325337 53336
STARLINK-34437          
1 64346U 25126C   26153.16648256  .00002411  00000+0  20975-3 0  9997
2 64346  69.9998 181.5434 0003850 266.5590  93.5129 14.98336295 53333
STARLINK-34407          
1 64347U 25126D   26153.17082139  .00002955  00000+0  25532-3 0  9998
2 64347  69.9998 181.5530 0004096 269.6488  90.4202 14.98337664 53333
STARLINK-34274          
1 64348U 25126E   26153.18319316  .00002280  00000+0  19883-3 0  9993
2 64348  69.9999 181.6029 0003780 268.4440  91.6286 14.98327512 53339
STARLINK-34301          
1 64349U 25126F   26153.14143860  .00003047  00000+0  26302-3 0  9995
2 64349  69.9996 181.4545 0003894 266.7422  93.3291 14.98335089 53338
STARLINK-34425          
1 64350U 25126G   26153.16232450  .00005313  00000+0  45274-3 0  9990
2 64350  70.0001 181.5259 0003934 273.6603  86.4106 14.98329417 53332
STARLINK-34389          
1 64351U 25126H   26153.14995243  .00003936  00000+0  33741-3 0  9990
2 64351  70.0004 181.4801 0003983 268.0556  92.0147 14.98336607 53334
STARLINK-34385          
1 64352U 25126J   26153.17483112  .00002420  00000+0  21047-3 0  9994
2 64352  69.9996 181.5716 0004044 266.4341  93.6356 14.98336268 53333
STARLINK-34431          
1 64353U 25126K   26153.13742829  .00003767  00000+0  32339-3 0  9995
2 64353  69.9992 181.4440 0003374 267.7106  92.3667 14.98325710 53332
STARLINK-34473          
1 64354U 25126L   26153.14979577  .00004350  00000+0  37218-3 0  9999
2 64354  70.0002 181.4850 0003806 263.8644  96.2082 14.98324872 53339
STARLINK-34270          
1 64355U 25126M   26153.15396183  .00003577  00000+0  30741-3 0  9991
2 64355  69.9996 181.4976 0003855 266.3434  93.7284 14.98336385 54538
STARLINK-34397          
1 64356U 25126N   26153.17900421  .00002993  00000+0  25843-3 0  9998
2 64356  69.9997 181.5832 0003911 268.1250  91.9462 14.98338121 53336
STARLINK-34454          
1 64357U 25126P   26153.18334398  .00001855  00000+0  16322-3 0  9992
2 64357  69.9996 181.5962 0003425 268.3902  91.6865 14.98335854 53330
STARLINK-34436          
1 64358U 25126Q   26153.19583924  .00002044  00000+0  17902-3 0  9991
2 64358  69.9995 181.2375 0004086 264.8809  95.1884 14.98334878 53342
STARLINK-34291          
1 64359U 25126R   26153.14578558  .00004204  00000+0  35993-3 0  9994
2 64359  69.9995 181.4626 0003662 266.7918  93.2822 14.98326466 53339
STARLINK-34458          
1 64360U 25126S   26153.15409518  .00062021  00000+0  51419-2 0  9997
2 64360  69.9998 181.4946 0005086 276.9332  83.1248 14.98458871 53330
STARLINK-34243          
1 64361U 25126T   26153.15813462  .00002676  00000+0  23198-3 0  9999
2 64361  69.9999 181.5125 0004019 265.3083  94.7617 14.98335371 53339
STARLINK-34335          
1 64362U 25126U   26153.13308918  .00002166  00000+0  18928-3 0  9992
2 64362  69.9995 181.4254 0003944 264.9487  95.1222 14.98334708 53337
STARLINK-34408          
1 64363U 25126V   26153.19149654 -.00001842  00000+0 -14654-3 0  9993
2 64363  69.9986 181.2247 0004581 269.2834  90.7800 14.98332196 53343
STARLINK-34476          
1 64364U 25126W   26153.14561337  .00004082  00000+0  34965-3 0  9999
2 64364  69.9997 181.4662 0003874 266.0228  94.0488 14.98335594 53338
STARLINK-34479          
1 64365U 25126X   26153.12058976  .00000667  00000+0  63715-4 0  9999
2 64365  69.9998 181.7790 0003678 261.1012  98.9731 14.98322739 53324
STARLINK-34484          
1 64366U 25126Y   26153.19567468  .00001932  00000+0  16966-3 0  9999
2 64366  69.9995 181.2387 0003873 265.0506  95.0211 14.98334600 54554
